OBJECT_NAME,OBJECT_ID,EPOCH,MEAN_MOTION,ECCENTRICITY,INCLINATION,RA_OF_ASC_NODE,ARG_OF_PERICENTER,MEAN_ANOMALY,EPHEMERIS_TYPE,CLASSIFICATION_TYPE,NORAD_CAT_ID,ELEMENT_SET_NO,REV_AT_EPOCH,BSTAR,MEAN_MOTION_DOT,MEAN_MOTION_DDOT
LEMUR-1,2014-033AL,2026-06-25T20:23:47.503104,14.85276339,.00493,97.7884,326.4626,50.9423,309.6163,0,U,40044,999,64675,.21641E-3,.1843E-4,0
LEMUR-2-GREENBERG,2017-042N,2026-06-25T10:48:50.287392,15.31562811,.0007742,97.3821,357.0385,342.7505,17.3473,0,U,42837,999,48965,.66754E-3,.20317E-3,0
LEMUR-2-ANDIS,2017-042P,2026-06-25T11:03:32.306112,15.35151462,.0007528,97.3683,357.2617,340.3987,19.6966,0,U,42838,999,48972,.77638E-3,.2649E-3,0
LEMUR-2-MONSON,2017-042Q,2026-06-25T11:27:21.369888,15.28227889,.0005532,97.4081,357.0248,333.9572,26.1388,0,U,42839,999,48943,.67583E-3,.18549E-3,0
LEMUR-2-FURIAUS,2017-042R,2026-06-25T10:48:12.722400,15.30502582,.0007597,97.3771,354.9746,42.6204,317.5625,0,U,42840,999,48947,.74037E-3,.21817E-3,0
LEMUR-2-PETERG,2017-042S,2026-06-25T10:48:08.745408,15.34204539,.0002735,97.3992,1.4954,318.2823,41.8211,0,U,42841,999,48970,.88921E-3,.29442E-3,0
LEMUR-2-DEMBITZ,2017-042T,2026-06-25T11:16:33.864960,15.30526347,.0006016,97.3824,358.0245,359.1117,1.0112,0,U,42842,999,48961,.63755E-3,.18776E-3,0
LEMUR-2-ZACHARY,2017-042W,2026-06-25T12:21:30.936096,15.50949573,.0002375,97.3594,8.3323,353.4358,6.6862,0,U,42845,999,49049,.1011E-2,.58848E-3,0
LEMUR-2-AMANDA-SVANTE,2021-034B,2026-06-25T16:54:05.956704,15.34778103,.0003221,97.5760,255.2162,184.8321,175.2891,0,U,48269,999,28236,.1198E-2,.40479E-3,0
LEMUR-2-SPECIAL-K,2021-034F,2026-06-25T17:08:18.195072,15.66944972,.0004899,97.5651,264.2031,223.4906,136.5968,0,U,48273,999,28302,.19286E-2,.209168E-2,0
LEMUR-2-EMBRIONOVIS,2023-084AQ,2026-06-25T20:33:56.668896,15.37754414,.0007465,97.6292,321.3903,284.1430,75.8985,0,U,56970,999,16901,.42563E-3,.15725E-3,0
LEMUR-2-DEVERILL-M-T,2023-100F,2026-06-25T14:48:22.867776,15.40144601,.0005508,99.4474,217.8109,21.1253,339.0212,0,U,57391,999,16254,.78035E-3,.31279E-3,0
LEMUR-2-BASS,2023-174D,2026-06-25T16:54:34.428096,15.43362898,.0008052,97.3850,261.5368,136.3982,223.7903,0,U,58259,999,14667,.50539E-3,.22519E-3,0
LEMUR-2-JK0903EM1407,2023-174CJ,2026-06-25T17:16:20.828064,15.52094902,.0005174,97.3930,267.4313,95.8251,264.3591,0,U,58336,999,14705,.53768E-3,.32458E-3,0
LEMUR-2-MJR092620,2023-174CN,2026-06-25T06:06:41.981184,15.45150004,.00069,97.3979,266.4330,94.2444,265.9594,0,U,58340,999,14689,.49476E-3,.23413E-3,0
LEMUR-2-NIMBUS2000,2024-022A,2026-06-25T14:09:42.571584,15.40315635,.0010307,97.4107,26.6981,90.4952,269.7475,0,U,58899,999,13356,.68202E-3,.27522E-3,0
LEMUR-2-VALHALLA,2024-022B,2026-06-25T12:33:29.423808,15.39908246,.0010805,97.4105,26.6163,86.8533,273.3949,0,U,58900,999,13355,.50228E-3,.19961E-3,0
LEMUR-2-CAEL,2024-022E,2026-06-25T12:37:26.039712,15.41228150,.0009005,97.4088,27.5698,73.0333,287.1900,0,U,58903,999,13362,.51604E-3,.21415E-3,0
LEMUR-2-JOHNNYTRUONG,2024-043BA,2026-06-25T16:15:12.741120,15.61073346,.0004871,97.5374,328.9099,151.1687,208.9840,0,U,59146,999,12936,.55519E-3,.46818E-3,0
LEMUR-2-TOMATOKECHUP,2024-149D,2026-06-25T16:56:43.277280,15.36197782,.0002182,97.3803,258.7748,159.5133,200.6199,0,U,60471,999,10347,.39446E-3,.13843E-3,0
LEMUR-2-STELLA,2024-149BT,2026-06-25T11:41:33.552096,15.11970744,.0001501,97.6740,258.9786,96.5927,263.5474,0,U,60533,999,10175,.78588E-3,.13431E-3,0
LEMUR-2-MARHISYAM,2024-149BW,2026-06-25T11:17:35.183040,15.11407654,.0003342,97.6883,259.4196,103.3028,256.8575,0,U,60536,999,10173,.73609E-3,.1238E-3,0
LEMUR-2-AHMED-ASRAR,2024-149DN,2026-06-25T16:40:57.395136,15.12891672,.0001101,97.7008,261.7711,25.2355,334.8929,0,U,60576,999,10185,.87609E-3,.15373E-3,0
LEMUR-2-LLOYD,2024-149DP,2026-06-25T17:27:11.604096,15.09390439,.0005106,97.6746,257.8609,119.2254,240.9485,0,U,60577,999,10168,.793E-3,.12623E-3,0
LEMUR-2-SQUIRRELCOMM,2024-149DQ,2026-06-25T16:29:15.231840,15.07243364,.0005945,97.6719,257.5715,38.5397,321.6254,0,U,60578,999,10168,.49018E-3,.733E-4,0
LEMUR-2-SIERRINI,2024-149DR,2026-06-25T16:39:58.999968,15.11115308,.0006373,97.6846,259.3243,140.8760,219.2931,0,U,60579,999,10174,.87679E-3,.1465E-3,0
LEMUR-2-WILSON,2025-009CP,2026-06-25T17:28:24.591360,14.95200083,.000368,97.7026,255.0429,34.0505,326.0951,0,U,62694,999,7863,.16998E-3,.1811E-4,0
LEMUR-2-STAR-FOX,2025-009CR,2026-06-25T16:24:16.903008,15.02608477,.0004348,97.6953,258.2312,94.2616,265.9106,0,U,62696,999,7883,.54462E-3,.7196E-4,0
LEMUR-2-ARIANNA,2025-009CU,2026-06-25T19:33:50.008896,15.02597760,.0004753,97.6896,258.1294,98.4347,261.7417,0,U,62699,999,7885,.66709E-3,.8828E-4,0
LEMUR-2-ALISIA,2025-009DB,2026-06-25T11:00:19.507104,15.02872259,.0002728,97.6934,258.5708,183.7724,176.3481,0,U,62706,999,10140,.73384E-3,.9788E-4,0
