LEMUR-1                 
1 40044U 14033AL  26176.84985536  .00001843  00000+0  21641-3 0  9995
2 40044  97.7884 326.4626 0049300  50.9423 309.6163 14.85276339646759
LEMUR-2-GREENBERG       
1 42837U 17042N   26176.45058203  .00020317  00000+0  66754-3 0  9990
2 42837  97.3821 357.0385 0007742 342.7505  17.3473 15.31562811489653
LEMUR-2-ANDIS           
1 42838U 17042P   26176.46079058  .00026490  00000+0  77638-3 0  9994
2 42838  97.3683 357.2617 0007528 340.3987  19.6966 15.35151462489720
LEMUR-2-MONSON          
1 42839U 17042Q   26176.47733067  .00018549  00000+0  67583-3 0  9997
2 42839  97.4081 357.0248 0005532 333.9572  26.1388 15.28227889489431
LEMUR-2-FURIAUS         
1 42840U 17042R   26176.45014725  .00021817  00000+0  74037-3 0  9994
2 42840  97.3771 354.9746 0007597  42.6204 317.5625 15.30502582489470
LEMUR-2-PETERG          
1 42841U 17042S   26176.45010122  .00029442  00000+0  88921-3 0  9991
2 42841  97.3992   1.4954 0002735 318.2823  41.8211 15.34204539489708
LEMUR-2-DEMBITZ         
1 42842U 17042T   26176.46983640  .00018776  00000+0  63755-3 0  9993
2 42842  97.3824 358.0245 0006016 359.1117   1.0112 15.30526347489611
LEMUR-2-ZACHARY         
1 42845U 17042W   26176.51494139  .00058848  00000+0  10110-2 0  9992
2 42845  97.3594   8.3323 0002375 353.4358   6.6862 15.50949573490491
LEMUR-2-AMANDA-SVANTE   
1 48269U 21034B   26176.70423561  .00040479  00000+0  11980-2 0  9993
2 48269  97.5760 255.2162 0003221 184.8321 175.2891 15.34778103282366
LEMUR-2-SPECIAL-K       
1 48273U 21034F   26176.71409948  .00209168  00000+0  19286-2 0  9991
2 48273  97.5651 264.2031 0004899 223.4906 136.5968 15.66944972283029
LEMUR-2-EMBRIONOVIS     
1 56970U 23084AQ  26176.85690589  .00015725  00000+0  42563-3 0  9998
2 56970  97.6292 321.3903 0007465 284.1430  75.8985 15.37754414169019
LEMUR-2-DEVERILL-M-T    
1 57391U 23100F   26176.61693134  .00031279  00000+0  78035-3 0  9993
2 57391  99.4474 217.8109 0005508  21.1253 339.0212 15.40144601162548
LEMUR-2-BASS            
1 58259U 23174D   26176.70456514  .00022519  00000+0  50539-3 0  9993
2 58259  97.3850 261.5368 0008052 136.3982 223.7903 15.43362898146670
LEMUR-2-JK0903EM1407    
1 58336U 23174CJ  26176.71968551  .00032458  00000+0  53768-3 0  9999
2 58336  97.3930 267.4313 0005174  95.8251 264.3591 15.52094902147055
LEMUR-2-MJR092620       
1 58340U 23174CN  26176.25465256  .00023413  00000+0  49476-3 0  9999
2 58340  97.3979 266.4330 0006900  94.2444 265.9594 15.45150004146895
LEMUR-2-NIMBUS2000      
1 58899U 24022A   26176.59007606  .00027522  00000+0  68202-3 0  9992
2 58899  97.4107  26.6981 0010307  90.4952 269.7475 15.40315635133562
LEMUR-2-VALHALLA        
1 58900U 24022B   26176.52325722  .00019961  00000+0  50228-3 0  9997
2 58900  97.4105  26.6163 0010805  86.8533 273.3949 15.39908246133552
LEMUR-2-CAEL            
1 58903U 24022E   26176.52599583  .00021415  00000+0  51604-3 0  9994
2 58903  97.4088  27.5698 0009005  73.0333 287.1900 15.41228150133624
LEMUR-2-JOHNNYTRUONG    
1 59146U 24043BA  26176.67723080  .00046818  00000+0  55519-3 0  9997
2 59146  97.5374 328.9099 0004871 151.1687 208.9840 15.61073346129369
LEMUR-2-TOMATOKECHUP    
1 60471U 24149D   26176.70605645  .00013843  00000+0  39446-3 0  9990
2 60471  97.3803 258.7748 0002182 159.5133 200.6199 15.36197782103472
LEMUR-2-STELLA          
1 60533U 24149BT  26176.48719389  .00013431  00000+0  78588-3 0  9998
2 60533  97.6740 258.9786 0001501  96.5927 263.5474 15.11970744101756
LEMUR-2-MARHISYAM       
1 60536U 24149BW  26176.47054610  .00012380  00000+0  73609-3 0  9990
2 60536  97.6883 259.4196 0003342 103.3028 256.8575 15.11407654101732
LEMUR-2-AHMED-ASRAR     
1 60576U 24149DN  26176.69510874  .00015373  00000+0  87609-3 0  9997
2 60576  97.7008 261.7711 0001101  25.2355 334.8929 15.12891672101852
LEMUR-2-LLOYD           
1 60577U 24149DP  26176.72721764  .00012623  00000+0  79300-3 0  9998
2 60577  97.6746 257.8609 0005106 119.2254 240.9485 15.09390439101680
LEMUR-2-SQUIRRELCOMM    
1 60578U 24149DQ  26176.68698185  .00007330  00000+0  49018-3 0  9996
2 60578  97.6719 257.5715 0005945  38.5397 321.6254 15.07243364101681
LEMUR-2-SIERRINI        
1 60579U 24149DR  26176.69443287  .00014650  00000+0  87679-3 0  9997
2 60579  97.6846 259.3243 0006373 140.8760 219.2931 15.11115308101748
LEMUR-2-WILSON          
1 62694U 25009CP  26176.72806240  .00001811  00000+0  16998-3 0  9990
2 62694  97.7026 255.0429 0003680  34.0505 326.0951 14.95200083 78633
LEMUR-2-STAR-FOX        
1 62696U 25009CR  26176.68352897  .00007196  00000+0  54462-3 0  9991
2 62696  97.6953 258.2312 0004348  94.2616 265.9106 15.02608477 78835
LEMUR-2-ARIANNA         
1 62699U 25009CU  26176.81516214  .00008828  00000+0  66709-3 0  9994
2 62699  97.6896 258.1294 0004753  98.4347 261.7417 15.02597760 78852
LEMUR-2-ALISIA          
1 62706U 25009DB  26176.45855911  .00009788  00000+0  73384-3 0  9996
2 62706  97.6934 258.5708 0002728 183.7724 176.3481 15.02872259101404
